LON,LAT,type,name,email,street,city,state,zip,www,facebook,fbIcon,instagram,instaIcon,markets
-84.518577,37.922394,Cut Flower Grower,Agape Fields,julie@agapefields.com,1422 Beaumont Rd,Nicholasville,KY,40356,https://www.agapefields.com/,https://www.facebook.com/AgapeFieldsFlowers/,./icons/fb-icon.png,https://www.instagram.com/agapefields/,./icons/instagram-icon.png,"Wholesale to florists, Wedding Design, Delivery and CSA, You Pick, Workshops"
-84.6859716,38.2692388,Cut Flower Grower,Annie's Flowers,anniesfreshflowers@gmail.com,115 Wright St,Stamping Ground,KY,40379,https://www.anniesfreshflowers.com,https://www.facebook.com/freshflowersonthetable/,./icons/fb-icon.png,https://www.instagram.com/anniesflowers/,./icons/instagram-icon.png,"Wholesale to florists, Wedding Design, Farm Stands, Delivery to Lexington and Georgetown"
-84.83534,38.10424,Cut Flower Grower,Beholden Blooms,Nicole@beholdenblooms.com,1011 Sunny View Ln,Frankfort,KY,40601,https://www.beholdenblooms.com,https://www.facebook.com/BeholdenBlooms,./icons/fb-icon.png,https://www.instagram.com/beholdenblooms/,./icons/instagram-icon.png,"Farmer's market, Wholesale to florists, Wedding design, Flower Bike"
-85.080521,38.127209,Cut Flower Grower,Bellaire Blooms,bellairebloomsky@gmail.com,3810 Waddy Rd,Waddy,KY,40076,https://www.bellairebloomsky.com/,https://www.facebook.com/700bellaireave,./icons/fb-icon.png,https://www.instagram.com/bellaireblooms/,./icons/instagram-icon.png,"Farmer's Markets, Wholesale to florists"
-85.757829,38.254824,Cut Flower Grower,Black Rooster Farm,blackroosterfarm@yahoo.com,,Louisville,KY,,http://www.blackroosterfarm.com/,https://www.facebook.com/blackroosterfarmkentucky,./icons/fb-icon.png,https://www.instagram.com/blackroosterfarm/,./icons/instagram-icon.png,Farmer's Market
-84.46736,38.95361,Cut Flower Grower,BlackBerry Ridge Flower Farm,,,Ryland Heights,KY,,https://www.blackberryridgeflowerfarm.com/,https://www.facebook.com/Blackberry-Ridge-Flower-Farm-116678656833674,./icons/fb-icon.png,https://www.instagram.com/blackberryridgeflowerfarm/?hl=en,./icons/instagram-icon.png,"Farmer's market (with Anna Raines at Rains & Sun Hilltop Farm), Bouquet subscription"
-83.93249,38.38925,Cut Flower Grower,Blooming Valley Flower Farm,bloomingvalleyflowerfarm@gmail.com,607 Briggs Lane,Ewing,KY,41039,,https://www.facebook.com/Bloomingvalleyflowerfarm,./icons/fb-icon.png,https://www.instagram.com/bloomingvalleyflowerfarm/,./icons/instagram-icon.png,"Farmer's Market, Wholesale to florists, Wedding Design, Weekly Buckets"
-84.1567282,38.1524016,Cut Flower Grower,Blooms of Bourbon Co,cindykflowers@gmail.com,393 Thomas Rd,Paris,KY,40361,https://bloomsofbc.com/,https://www.facebook.com/bbcfreshcutflowers/,./icons/fb-icon.png,https://www.instagram.com/bloomsofbourboncounty/,./icons/instagram-icon.png,Farmer's Market
-87.17854,37.20115,Cut Flower Grower,Blossom Hill Flower Farm ,ckferguson9@gmail.com,,Greenville,KY,,,https://www.facebook.com/blossomhillflowerfarm/,./icons/fb-icon.png,https://www.instagram.com/Blossomhillflowerfarm/,./icons/instagram-icon.png,Consign though local boutiques and gift stores
-84.1834639,38.0135048,Cut Flower Grower,Bluegrass Blooms & Botanicals,bluegrassblooms@gmail.com,671 Tech Dr.,Winchester,KY,40391,https://www.Bluegrassblooms.com,https://www.facebook.com/BluegrassBlooms/,./icons/fb-icon.png,https://www.instagram.com/bluegrassblooms/,./icons/instagram-icon.png,"Wholesale to florists, Wedding Design, Bouquet Subscription, Pop up Flower Bar, Grocery Stores"
-86.3236721,36.9404611,Cut Flower Grower,Briar Rose Garden,Briarrosegarden@gmail.com,7791 Cemetery Rd,Bowling Green ,KY,42103,https://www.briarrosegarden.com,https://www.facebook.com/briarrosegarden/,./icons/fb-icon.png,https://www.instagram.com/briarrosegarden/,./icons/instagram-icon.png,"Wedding Design, Farm Stands, You Pick"
-84.40866,38.87995,Cut Flower Grower,Broken Oaks Farm,www.brokenoaksfarm.com,11900 Lees Road,Alexandria,KY,,,https://www.facebook.com/brokenoaksfarm/,./icons/fb-icon.png,https://www.instagram.com/brokenoaksfarm,./icons/instagram-icon.png,"Farmer's market, Wholesale to florists, On-farm pickup (by request)"
-84.2818035,38.5116166,Cut Flower Grower,Brownings,browningsflowertruck@gmail.com,694 Blackburn Rd.,Cynthiana,KY,41031,https://www.browningsflowertruck.com/about,https://www.facebook.com/browningsflowertruck/,./icons/fb-icon.png,https://www.instagram.com/browningsflowertruck/,./icons/instagram-icon.png,"Wedding Design, Flower truck"
-85.1856465,36.8700292,Cut Flower Grower,Campbell's Hollow Ranch,klcampbell180@gmail.com,180 Hollow Ranch Rd,Albany,KY,42062,https://www.campbellshollowranch.com/,https://www.facebook.com/Campbells-Hollow-Ranch-1409743482681427/,./icons/fb-icon.png,https://www.instagram.com/campbellshollowranch/,./icons/instagram-icon.png,Farmer's Market
-86.0937425,37.6775211,Cut Flower Grower,Color Me Mod Flower Farm,colormemod@gmail.com,836 Horn Rd,Cecilia,KY,42724,https://www.colormemodflowerfarm.com,https://www.facebook.com/Colormemod/,./icons/fb-icon.png,https://www.instagram.com/colormemodflowerfarm/,./icons/instagram-icon.png,"Wholesale to florists, DIY Buckets "
-85.7609942,38.2543111,Cut Flower Grower,Dancing Deer Botanicals,dancingdeerbotanical@gmail.com,,Louisville,KY,,,https://www.facebook.com/dancingdeerbotanicals,./icons/fb-icon.png,https://Instagram.com/dancingdeerbotanicals,./icons/instagram-icon.png,"Local boutique, custom orders, events with their mobile shop"
-86.4235786,36.995634,Cut Flower Grower,Davida Flowers,MAJESTICGREENSFARM@GMAIL.COM,Warren County,,,,https://www.majesticgreensfarm.com/davidas-flowers,https://www.facebook.com/MajesticGreensFarm/,./icons/fb-icon.png,https://www.instagram.com/majesticgreensfarm/,./icons/instagram-icon.png,Subscription services
-85.161001,38.030785,Cut Flower Grower,Der Bauernhof,ssand2@live.com,Van Buren Rd,Mt Eden,KY,40046,https://flowersderbauernhof.square.site,https://www.facebook.com/derbauernhofky/,./icons/fb-icon.png,https://www.instagram.com/susanbeverlysand/,./icons/instagram-icon.png,"Wedding Design, stand in Louisville"
-85.3515142,38.2169802,Cut Flower Grower,Eden Roots Flower Farm,edenrootsflowerfarm@gmail.com,221 Old Veechdale Rd,Simpsonville,KY,40067,http://www.edenrootsflowerfarm.com,https://www.facebook.com/EdenRootsFlowerFarm/,./icons/fb-icon.png,https://www.instagram.com/edenroots_flowerfarm/,./icons/instagram-icon.png,"Wholesale to florists, Wedding Design, Order online for delivery "
-86.0135737,37.7096372,Cut Flower Grower,Fallen Maple Farm,fallenmaplefarm1@gmail.com,7694 Long Grove Road,Elizabethtown,KY,42701,https://fallenmaplefarm.square.site ,https://www.facebook.com/fallenmaplefarm,./icons/fb-icon.png,https://www.instagram.com/fallenmaplefarm/,./icons/instagram-icon.png,Farmer's market
-84.402209,38.462038,Cut Flower Grower,Flora Berry Farm,vdrudnicki@gmail.com,498 Crows Ridge Rd,Berry,KY,41003,https://www.floraberryfarm.com,https://www.facebook.com/floraberryfarm/,./icons/fb-icon.png,https://www.instagram.com/floraberryfarm/,./icons/instagram-icon.png,"Farmer's Market, Wholesale to florists, Wedding Design, Subscription service"
-87.6809005,36.8148033,Cut Flower Grower,Free Range Flowers at Martin's Farm,freerangeflowers@yahoo.com,593 E. Lake Rd,Gracey,KY,42232,https://www.freerangeflowers.net/,https://www.facebook.com/freerangeflowersatmartinfarm/,./icons/fb-icon.png,https://www.instagram.com/freerangeflowers/,./icons/instagram-icon.png,"Wedding Design, CSA bouquet subscription delivery service to home & office"
-86.6835998,37.2256023,Cut Flower Grower,Freida T's Flowers,FreidaTsFlowers@yahoo.com,410 Hunt Lane,Morgantown,KY,42261,https://www.freidatsflowers,https://www.facebook.com/FreidaTsFlowers/,./icons/fb-icon.png,https://www.instagram.com/freidatsflowers/,./icons/instagram-icon.png,"Wholesale to florists, Subscriptions, Mobile Flower Truck,  Members Market at Farm, Farm To Vase Events"
-85.7609942,38.245,Cut Flower Grower,FreshCutKY,freshcutky@gmail.com,,Louisville,KY,,http://www.freshcutky.co,https://www.facebook.com/freshcutky/,./icons/fb-icon.png,https://www.instagram.com/freshcutky/,./icons/instagram-icon.png,"Farmer's Market, Wedding Design, Farm Stands"
-85.136952,38.522085,Cut Flower Grower,Front Yard Farms,frontyardfarmky@gmail.com,4123 Port Royal Rd,Turners Station,KY,40075,,https://www.facebook.com/frontyardfarmky/,./icons/fb-icon.png,https://www.instagram.com/frontyardfarm_ky/,./icons/instagram-icon.png,Farmer's market
-85.4507101,38.2308776,Cut Flower Grower,Good Buds Flower Farm,jenlbamsey@gmail.com,16230 Eastwood Cut Off Rd,Louisville,KY,40245,,https://www.facebook.com/goodbudsflowerfarm,./icons/fb-icon.png,https://www.instagram.com/goodbudsflowerfarm/,./icons/instagram-icon.png,"Farmer's market, Wholesale to florists, Farm stands, Bouquet Subscriptions, Custom Orders"
-84.66204,38.198808,Cut Flower Grower,Gray Arbor Farm,grayarbor@gmail.com,388 Soards Rd,Georgetown,KY,40324,https://grayarborfarm.com,https://www.facebook.com/grayarborfarm,./icons/fb-icon.png,https://www.instagram.com/grayarborfarm/,./icons/instagram-icon.png,"Farmer's Market, Wedding Design, Farm Stands, Delivery"
-84.5037164,38.0405837,Cut Flower Grower,Greenhouse 17,smcguire@greenhouse17.org,4400 Briar Hill Rd,Lexington,KY,40516,https://www.greenhouse17.org,https://www.facebook.com/GreenHouse17/,./icons/fb-icon.png,https://www.instagram.com/greenhouse17ky/,./icons/instagram-icon.png,"Farmer's Market, Farm Stands, CSA"
-85.829748,37.07508,Cut Flower Grower,Growing Boys Farm,sarahshirley@scrtc.com,5428 Coral Hill Rd.,Glasgow,KY,42141,,,,,,"Farmer's Market, Wholesale to florists, Wedding Design, on farm sales"
-83.2453489,36.9014725,Cut Flower Grower,Hartlove Farms,hartlovefarms@gmail.com,3029 Hwy 522 ,Baxter,KY,40806,https://hartlovefarms.wordpress.com/,https://www.facebook.com/HartloveFarms/,./icons/fb-icon.png,https://www.instagram.com/hartlovefarms/,./icons/instagram-icon.png,"Farmer's Market, Wholesale to florists, Wedding Design, On-the-farm workshops "
-84.739349,37.946761,Cut Flower Grower,Heart and Horizon/Mixed Borders Garden Design,mixedbordersky@gmail.com,100 Fords Mill Rd,Versailles,KY,40383,,https://www.facebook.com/Heart-and-Horizon-Farm-478388398981275/,./icons/fb-icon.png,,,"Farmer's Market, Wholesale to florists"
-84.787504,38.1633612,Cut Flower Grower,Highland Moor,info@highlandmoor.com,226 Shady Ln,Midway,KY,40347,http://highlandmoor.com/,https://www.facebook.com/HighlandMoor/,./icons/fb-icon.png,,,"Farmer's Market, Wholesale to florists, Specialty stores"
-84.878777,38.19507,Cut Flower Grower,Hither Blooms,hitherblooms@gmail.com,,Frankfort,KY,,https://hither-blooms.square.site/,https://www.facebook.com/HitherBlooms,./icons/fb-icon.png,https://www.instagram.com/hitherblooms/,./icons/instagram-icon.png,"Farmer's market, Wholesale to florists, subscription bouquets, custom orders"
-84.6580272,38.2068107,Cut Flower Grower,In Bloom Flower Farm,carly@inbloomcutflowers.com,160 Soards Rd,Georgetown,KY,40324,https://inbloomcutflowers.com/,https://www.facebook.com/inbloomflowerfarm/,./icons/fb-icon.png,https://www.instagram.com/inbloomflowerfarm/,./icons/instagram-icon.png,"Farmer's Market, Wedding Design"
-84.1283335,37.1426834,Cut Flower Grower,Isabelle Blooms,laurabrooke12@gmail.com,662 Ridings-Mitchell Creek Road,London,KY,40741,https://www.isabelleblooms.com,,,https://www.instagram.com/isabelleblooms/,./icons/instagram-icon.png,"Local event venue, Custom orders"
-86.164678,37.029676,Cut Flower Grower,Kentucky Cuts,,9862 Glasgow Rd,Smiths Grove,KY,42171,,,,,,"Farmer's Market, SoKY Marketplace Crop Shop"
-87.9007986,37.0039265,Cut Flower Grower,Meadowview Flowers,meadowviewflowers@gmail.com,2245 Kentucky 1272,Princeton,KY,42445,https://www.meadowviewflowers.com/,https://www.facebook.com/meadowviewflowers,./icons/fb-icon.png,https://www.instagram.com/meadowviewflowers/,./icons/instagram-icon.png,"Wholesale to florists, Subscriptions, Mobile Flower Truck,  Members Market at Farm, Farm To Vase Events"
-82.8329656,38.5279415,Cut Flower Grower,Mountain Girl Provisions,mtnmomma61@hotmail.com,578 Cedar Riffle Rd,Greenup,KY,41144,,https://www.facebook.com/mtngirlprovision/,./icons/fb-icon.png,,,"Farmer's Market, text, facebook, home delivery"
-83.65134,37.270018,Cut Flower Grower,Old Homeplace Farm,maggie@oldhomeplacefarm.com,PO Box 13,Oneida,KY,40972,https://www.oldhomeplacefarm.com/ ,https://www.facebook.com/OldHomeplaceFarm ,./icons/fb-icon.png,https://www.instagram.com/oldhomeplacefarm/,./icons/instagram-icon.png,online store and CSA
-86.887271,36.844754,Cut Flower Grower,Old Roots Farm,,,Russellville,KY,,https://www.oldrootsfarm.com/,https://www.facebook.com/oldrootsfarm,./icons/fb-icon.png,https://www.instagram.com/old_roots_farm/,./icons/instagram-icon.png,"On-farm market, Farm Stands, Wholesale to florists, Local retail sites"
-88.59772,37.083665,Cut Flower Grower,Poppy & Thistle,info@poppyandthistle.com,,Paducah,KY,,www.poppyandthistlefarm.com,https://www.facebook.com/poppyandthistlefarm,./icons/fb-icon.png,https://www.instagram.com/poppyandthistlefarm/?hl=en,./icons/instagram-icon.png,"Local boutique, Custom orders"
-85.518529,38.366495,Cut Flower Grower,Pure Pollen,purepollenflowers@gmail.com,8905 Hwy 329,Crestwood,KY,40014,http://purepollenflowers.com/,https://www.facebook.com/Pure-Pollen-Flowers-448649431879503/,./icons/fb-icon.png,https://www.instagram.com/purepollenflowers/,./icons/instagram-icon.png,"Farmer's Market, Wholesale to florists, Wedding Design, Farm Stands, edible blooms and herbs, floral delivery and holiday design"
-86.87779,37.403048,,Red Barn Blooms,redbarnblooms.lp@gmail.com,,Beaver Dam,KY,,,https://www.facebook.com/redbarnblooms.lp,./icons/fb-icon.png,https://www.instagram.com/red.barn.blooms/,./icons/instagram-icon.png,"Farmer's market, local boutique, u-pick, floral workshops, private events, custom orders"
-86.1746693,36.9270695,Cut Flower Grower,River Bend Blooms,info@riverbendblooms.com,1781 River Bend Rd.,Scottsville,KY,42164,https://www.riverbendblooms.com,https://www.facebook.com/riverbendblooms/,./icons/fb-icon.png,https://www.instagram.com/river.bend.blooms/,./icons/instagram-icon.png,"Wholesale to florists, Subscriptions, Mobile Flower Truck,  Members Market at Farm, Farm To Vase Events"
-84.8243965,37.8658822,Cut Flower Grower,Robertson Farm,emilyrrobertson15@gmail.com,1198 Harvey Pike,Harrodsburg,KY,,https://www.robertsonfarmky.com/,https://www.facebook.com/robertsonfamilyfarmkentucky,./icons/fb-icon.png,https://www.instagram.com/robertsonfarmky/,./icons/instagram-icon.png,"Farm stands, Subscription bouquets, Flower bar at local businesses"
-84.764662,38.642992,Cut Flower Grower,Royson Ridge Farm,RoysonRidge@gmail.com,14065 Jonesville Rd,Dry Ridge,KY,41035,,,,,,"Farmer's Market, Wholesale to florists, Farm Stands, delivery"
-84.9698934,37.5453332,Cut Flower Grower,Shooting Star Flowers,shootingstarflowers@gmail.com,355 Gorley Rd,Gravel Switch,KY,40328,,https://www.facebook.com/shootingstarflowerfarm/,./icons/fb-icon.png,https://www.instagram.com/shootingstarflowers/,./icons/instagram-icon.png,"Farmer's Market, Wholesale to florists, Farm Stands"
-86.5863097,36.9387554,Cut Flower Grower,Starry Fields Farm,starryfieldsfarmky@gmail.com,2750 Browning Rd.,Rockfield,KY,42274,https://www.starryfieldsflowers.com/,https://www.facebook.com/starryfieldsfarm/,./icons/fb-icon.png,https://www.instagram.com/jessica_starryfieldsfarm/,./icons/instagram-icon.png,"Farmer's Market, Wholesale to florists, Local Shops"
-86.813939,36.856456,Cut Flower Grower,Steenbergen Sunflower Farm,,4013 Stevenson Mill Rd,Russellville ,KY,42276,,https://www.facebook.com/steenbergensunflowers/,./icons/fb-icon.png,,,"You Pick, Flower wagon"
-87.4411788,36.9127485,Cut Flower Grower,Story and Bloom,elizabeth.riggle@storyandbloom.com,5180 Greenville Road,Hopkinsville,KY,42240,https://www.storyandbloom.com/home,https://www.facebook.com/story.and.bloom/,./icons/fb-icon.png,https://www.instagram.com/story.and.bloom/,./icons/instagram-icon.png,"Farmer's market, Wholesale to florists, Farm stands, events, workshops, on-site u-pick"
-84.031944,38.315833,Cut Flower Grower,Sweet Stems Flower Farm,,,Carlisle,KY,,,https://www.facebook.com/Sweet-Stems-Cut-Flower-Farm-101248232230416,./icons/fb-icon.png,,,"Farm roadside stand, pop-up locations, subscription bouquets"
-85.7584557,38.2526647,Cut Flower Grower,Tappendorf Flower Co,abby@tappendorfflower.co,307 Arterburn Dr.,Louisville,KY,40222,http://www.tappendorfflower.co/,,,https://www.instagram.com/tappendorf_flower_co/,./icons/instagram-icon.png,Wholesale to florists
-87.269013,36.722974,Cut Flower Grower,The Flower Patch,jknope49@yahoo.com,3147 Cemetery Rd,Trenton,KY,42286,,https://www.facebook.com/TheFlowerPatchTrenton/,./icons/fb-icon.png,https://www.instagram.com/theflowerpatchtrenton/,./icons/instagram-icon.png,"Farmer's Market, Wholesale to florists, Wedding Design, CSA"
-85.2536911,37.1689385,Cut Flower Grower,The Glass Parlor,theglassparlor@gmail.com,262 Snake Creek Rd,Columbia,KY,42728,https://www.theglassparlor.com,https://www.facebook.com/theglassparlorky/,./icons/fb-icon.png,https://www.instagram.com/the_glass_parlor/,./icons/instagram-icon.png,"Wholesale to florists, Wedding Design, Local gift shops "
-86.19184,36.75347,Cut Flower Grower,The Maple Yard,,,Scottsville,KY,,https://themapleyard.com/,https://www.facebook.com/themapleyard,./icons/fb-icon.png,https://www.instagram.com/themapleyard/?hl=en,./icons/instagram-icon.png,"Farmer's market, Bouquet subscription"
-85.522973,38.259152,Cut Flower Grower,Thistle and Finch Farm,thistleandfinchfarm@twc.com,12507 Old Henry Rd,Louisville,KY,40223,https://www.thistleandfinchfarm.com/,,,https://www.instagram.com/thistleandfinchfarm/,./icons/instagram-icon.png,"Flower stand/cart at Mozza Pi (Anchorage, KY)"
-86.018223,37.052916,Cut Flower Grower,Thornless Thistle,thornlessthistle@gmail.com,3101 Park City-Glasgow Rd,Glasgow,KY,42141,,https://www.facebook.com/ThornlessThistle/,./icons/fb-icon.png,,,"CSA, by the stem"
-84.2778876,37.9647778,Cut Flower Grower,Three Toads Farm,vschirmer3@gmail.com,3808 Combs Ferry Rd,Winchester,KY,40391,https://www.threetoadsfarm.com/,https://www.facebook.com/ThreeToadsFarm/,./icons/fb-icon.png,https://www.instagram.com/threetoadsfarm/,./icons/instagram-icon.png,"Farmer's Market, Wholesale to florists, Wedding Design, Special order bouquets and arrangements"
-85.361022,38.246655,Cut Flower Grower,Weathered Oak Farms,shalane@weatheredoakfarms.com,591 Noland Pike,Simpsonville,KY,40067,https://weatheredoakfarms.com,https://www.facebook.com/weatheredoakfarms/,./icons/fb-icon.png,https://www.instagram.com/weatheredoakfarms/,./icons/instagram-icon.png,"Farmer's Market, Wholesale to florists, Wedding Design"
-84.8971757,38.3265232,Cut Flower Grower,Wild Fern Farm,wildfernfarm@gmail.com,6945 Flat Creek Road,Frankfort,KY,40601,,https://www.facebook.com/wildfernfarmky,./icons/fb-icon.png,https://www.instagram.com/wildfernfarm/,,"Farm stands, Pop-up sales, On-site U-pick events, Custom orders"
-82.640332,38.461293,Cut Flower Grower,Wild Paint Cut Flowers,Karenhogsten@gmail.com,2828 Hackworth St.,Ashland,KY,41101,https://wildpaintcutflowers.com/,https://www.facebook.com/Wild-Paint-Cut-Flowers-167881017225754/,./icons/fb-icon.png,https://www.instagram.com/wild_paint_cut_flowers/,./icons/instagram-icon.png,"Farmer's Market, Wholesale to florists"
-84.8481571,37.8004027,Cut Flower Grower,Wild Roots,wildrootsfarmerflorist@gmail.com,138 Virginia Ave.,Harrodsburg,KY,40330,http://wildrootsfarmerflorist.com/,https://www.facebook.com/wildrootsfarmerflorist/,./icons/fb-icon.png,https://www.instagram.com/wildrootsfarmerflorist/,./icons/instagram-icon.png,"Farmer's Market, Wholesale to florists, Wedding Design, Local flower wholesaler in Nashville"
-86.10710343,37.39529236,Cut Flower Grower,Roots + Blooms at Laurel Creek Farms,laurelcreekfarms.ky@gmail.com,,,,,http://www.laurelcreekfarmsky.com,https://www.facebook.com/rootsplusblooms/,./icons/fb-icon.png,https://www.instagram.com/rootsplusblooms/,./icons/instagram-icon.png,"Farmers Market(s), Custom and Special Order Bouquets/Arrangements"
